start=new Date('2021-11-24T00:00:00.000Z').valueOf();
sats=[{"TLE_LINE1":"1 47549U 21009B   21327.83011608 -.00000101  00000-0  12121-4 0  9997","OBJECT_ID":"2021-009B","REV_AT_EPOCH":"4477","EPHEMERIS_TYPE":"0","CENTER_NAME":"EARTH","BSTAR":"0.00001212100000","MEAN_MOTION_DDOT":"0.0000000000000","APOAPSIS":"548.769","MEAN_ANOMALY":"289.7520","REF_FRAME":"TEME","ARG_OF_PERICENTER":"70.3712","PERIAPSIS":"545.647","SEMIMAJOR_AXIS":"6925.343","FILE":"3222563","NORAD_CAT_ID":"47549","ECCENTRICITY":"0.00022540","LAUNCH_DATE":"2021-02-04","RA_OF_ASC_NODE":"205.5236","OBJECT_NAME":"STARLINK-1806","CLASSIFICATION_TYPE":"U","MEAN_MOTION":"15.06401798","DECAY_DATE":null,"RCS_SIZE":"LARGE","INCLINATION":"53.0552","OBJECT_TYPE":"PAYLOAD","GP_ID":"190362990","COUNTRY_CODE":"US","SITE":"AFETR","TIME_SYSTEM":"UTC","MEAN_MOTION_DOT":"-0.00000101","TLE_LINE2":"2 47549  53.0552 205.5236 0002254  70.3712 289.7520 15.06401798 44773","MEAN_ELEMENT_THEORY":"SGP4","EPOCH":"2021-11-23T19:55:22.029312","PERIOD":"95.592","ELEMENT_SET_NO":"999"},{"TLE_LINE1":"1 47550U 21009C   21327.84210494 -.00000172  00000-0  73892-5 0  9995","OBJECT_ID":"2021-009C","REV_AT_EPOCH":"4491","EPHEMERIS_TYPE":"0","CENTER_NAME":"EARTH","BSTAR":"0.00000738920000","MEAN_MOTION_DDOT":"0.0000000000000","APOAPSIS":"548.659","MEAN_ANOMALY":"285.8225","REF_FRAME":"TEME","ARG_OF_PERICENTER":"74.2993","PERIAPSIS":"545.782","SEMIMAJOR_AXIS":"6925.356","NORAD_CAT_ID":"47550","FILE":"3222563","ECCENTRICITY":"0.00020770","LAUNCH_DATE":"2021-02-04","OBJECT_NAME":"STARLINK-1909","RA_OF_ASC_NODE":"195.4718","CLASSIFICATION_TYPE":"U","MEAN_MOTION":"15.06397652","RCS_SIZE":"LARGE","DECAY_DATE":null,"INCLINATION":"53.0558","OBJECT_TYPE":"PAYLOAD","GP_ID":"190363742","COUNTRY_CODE":"US","SITE":"AFETR","TIME_SYSTEM":"UTC","TLE_LINE2":"2 47550  53.0558 195.4718 0002077  74.2993 285.8225 15.06397652 44918","MEAN_MOTION_DOT":"-0.00000172","MEAN_ELEMENT_THEORY":"SGP4","EPOCH":"2021-11-23T20:12:37.866816","PERIOD":"95.592","ELEMENT_SET_NO":"999"},{"LAUNCH_DATE":"2021-02-04","MEAN_MOTION":"15.06409525","CLASSIFICATION_TYPE":"U","RA_OF_ASC_NODE":"217.2761","OBJECT_NAME":"STARLINK-1938","SEMIMAJOR_AXIS":"6925.319","PERIAPSIS":"545.817","ECCENTRICITY":"0.00019740","NORAD_CAT_ID":"47551","FILE":"3222418","REF_FRAME":"TEME","MEAN_ANOMALY":"286.3415","ARG_OF_PERICENTER":"73.7791","REV_AT_EPOCH":"4457","EPHEMERIS_TYPE":"0","OBJECT_ID":"2021-009D","TLE_LINE1":"1 47551U 21009D   21327.43849479  .00003418  00000-0  24820-3 0  9992","APOAPSIS":"548.551","BSTAR":"0.00024820000000","MEAN_MOTION_DDOT":"0.0000000000000","CENTER_NAME":"EARTH","EPOCH":"2021-11-23T10:31:25.949856","ELEMENT_SET_NO":"999","PERIOD":"95.592","TIME_SYSTEM":"UTC","SITE":"AFETR","COUNTRY_CODE":"US","MEAN_ELEMENT_THEORY":"SGP4","MEAN_MOTION_DOT":"0.00003418","TLE_LINE2":"2 47551  53.0542 217.2761 0001974  73.7791 286.3415 15.06409525 44570","GP_ID":"190337702","OBJECT_TYPE":"PAYLOAD","DECAY_DATE":null,"RCS_SIZE":"LARGE","INCLINATION":"53.0542"},{"NORAD_CAT_ID":"47552","FILE":"3222563","ECCENTRICITY":"0.00022060","PERIAPSIS":"545.687","SEMIMAJOR_AXIS":"6925.350","RA_OF_ASC_NODE":"206.3743","OBJECT_NAME":"STARLINK-1940","CLASSIFICATION_TYPE":"U","MEAN_MOTION":"15.06399633","LAUNCH_DATE":"2021-02-04","CENTER_NAME":"EARTH","MEAN_MOTION_DDOT":"0.0000000000000","BSTAR":"-0.00000822740000","APOAPSIS":"548.742","TLE_LINE1":"1 47552U 21009E   21327.64214011 -.00000404  00000-0 -82274-5 0  9997","OBJECT_ID":"2021-009E","REV_AT_EPOCH":"4474","EPHEMERIS_TYPE":"0","ARG_OF_PERICENTER":"74.2734","MEAN_ANOMALY":"285.8498","REF_FRAME":"TEME","TLE_LINE2":"2 47552  53.0540 206.3743 0002206  74.2734 285.8498 15.06399633 44742","MEAN_MOTION_DOT":"-0.00000404","MEAN_ELEMENT_THEORY":"SGP4","COUNTRY_CODE":"US","SITE":"AFETR","TIME_SYSTEM":"UTC","PERIOD":"95.592","ELEMENT_SET_NO":"999","EPOCH":"2021-11-23T15:24:40.905504","DECAY_DATE":null,"INCLINATION":"53.0540","RCS_SIZE":"LARGE","OBJECT_TYPE":"PAYLOAD","GP_ID":"190363241"},{"ELEMENT_SET_NO":"999","PERIOD":"95.456","EPOCH":"2021-11-23T21:21:34.809408","MEAN_ELEMENT_THEORY":"SGP4","MEAN_MOTION_DOT":"0.00219723","TLE_LINE2":"2 47553  53.0545 205.2408 0006232 301.0408  58.9970 15.08547153 44788","TIME_SYSTEM":"UTC","COUNTRY_CODE":"US","SITE":"AFETR","OBJECT_TYPE":"PAYLOAD","GP_ID":"190363491","RCS_SIZE":"LARGE","DECAY_DATE":null,"INCLINATION":"53.0545","CLASSIFICATION_TYPE":"U","MEAN_MOTION":"15.08547153","RA_OF_ASC_NODE":"205.2408","OBJECT_NAME":"STARLINK-1951","LAUNCH_DATE":"2021-02-04","FILE":"3222563","NORAD_CAT_ID":"47553","ECCENTRICITY":"0.00062320","PERIAPSIS":"536.329","SEMIMAJOR_AXIS":"6918.776","ARG_OF_PERICENTER":"301.0408","REF_FRAME":"TEME","MEAN_ANOMALY":"58.9970","MEAN_MOTION_DDOT":"0.0000000000000","BSTAR":"0.01350500000000","APOAPSIS":"544.952","CENTER_NAME":"EARTH","EPHEMERIS_TYPE":"0","REV_AT_EPOCH":"4478","TLE_LINE1":"1 47553U 21009F   21327.88998622  .00219723  00000-0  13505-1 0  9992","OBJECT_ID":"2021-009F"},{"EPHEMERIS_TYPE":"0","REV_AT_EPOCH":"4443","TLE_LINE1":"1 47554U 21009G   21327.44863243  .00000765  00000-0  70381-4 0  9997","OBJECT_ID":"2021-009G","BSTAR":"0.00007038100000","MEAN_MOTION_DDOT":"0.0000000000000","APOAPSIS":"550.769","CENTER_NAME":"EARTH","REF_FRAME":"TEME","MEAN_ANOMALY":"269.9776","ARG_OF_PERICENTER":"90.1798","PERIAPSIS":"543.697","SEMIMAJOR_AXIS":"6925.368","FILE":"3222418","NORAD_CAT_ID":"47554","ECCENTRICITY":"0.00051060","LAUNCH_DATE":"2021-02-04","CLASSIFICATION_TYPE":"U","MEAN_MOTION":"15.06393705","OBJECT_NAME":"STARLINK-1953","RA_OF_ASC_NODE":"227.2330","RCS_SIZE":"LARGE","DECAY_DATE":null,"INCLINATION":"53.0555","OBJECT_TYPE":"PAYLOAD","GP_ID":"190336951","TIME_SYSTEM":"UTC","COUNTRY_CODE":"US","SITE":"AFETR","MEAN_ELEMENT_THEORY":"SGP4","MEAN_MOTION_DOT":"0.00000765","TLE_LINE2":"2 47554  53.0555 227.2330 0005106  90.1798 269.9776 15.06393705 44435","EPOCH":"2021-11-23T10:46:01.841952","ELEMENT_SET_NO":"999","PERIOD":"95.593"},{"PERIOD":"95.592","ELEMENT_SET_NO":"999","EPOCH":"2021-11-23T16:32:20.896800","TLE_LINE2":"2 47555  53.0535 216.1655 0002379  67.1779 292.9461 15.06395847 44619","MEAN_MOTION_DOT":"0.00000633","MEAN_ELEMENT_THEORY":"SGP4","SITE":"AFETR","COUNTRY_CODE":"US","TIME_SYSTEM":"UTC","GP_ID":"190363993","OBJECT_TYPE":"PAYLOAD","DECAY_DATE":null,"RCS_SIZE":"LARGE","INCLINATION":"53.0535","RA_OF_ASC_NODE":"216.1655","OBJECT_NAME":"STARLINK-1954","MEAN_MOTION":"15.06395847","CLASSIFICATION_TYPE":"U","LAUNCH_DATE":"2021-02-04","ECCENTRICITY":"0.00023790","NORAD_CAT_ID":"47555","FILE":"3222563","SEMIMAJOR_AXIS":"6925.361","PERIAPSIS":"545.579","ARG_OF_PERICENTER":"67.1779","MEAN_ANOMALY":"292.9461","REF_FRAME":"TEME","CENTER_NAME":"EARTH","APOAPSIS":"548.874","BSTAR":"0.00006142300000","MEAN_MOTION_DDOT":"0.0000000000000","OBJECT_ID":"2021-009H","TLE_LINE1":"1 47555U 21009H   21327.68913075  .00000633  00000-0  61423-4 0  9994","REV_AT_EPOCH":"4461","EPHEMERIS_TYPE":"0"},{"GP_ID":"190337951","OBJECT_TYPE":"PAYLOAD","RCS_SIZE":"LARGE","DECAY_DATE":null,"INCLINATION":"53.0551","EPOCH":"2021-11-23T11:00:37.936224","PERIOD":"95.593","ELEMENT_SET_NO":"999","SITE":"AFETR","COUNTRY_CODE":"US","TIME_SYSTEM":"UTC","MEAN_MOTION_DOT":"-0.00000293","TLE_LINE2":"2 47556  53.0551 237.1813 0001944  74.0421 286.0782 15.06392156 44299","MEAN_ELEMENT_THEORY":"SGP4","MEAN_ANOMALY":"286.0782","REF_FRAME":"TEME","ARG_OF_PERICENTER":"74.0421","OBJECT_ID":"2021-009J","TLE_LINE1":"1 47556U 21009J   21327.45877241 -.00000293  00000-0 -75646-6 0  9992","EPHEMERIS_TYPE":"0","REV_AT_EPOCH":"4429","CENTER_NAME":"EARTH","APOAPSIS":"548.584","BSTAR":"-0.00000075646000","MEAN_MOTION_DDOT":"0.0000000000000","LAUNCH_DATE":"2021-02-04","OBJECT_NAME":"STARLINK-1955","RA_OF_ASC_NODE":"237.1813","MEAN_MOTION":"15.06392156","CLASSIFICATION_TYPE":"U","SEMIMAJOR_AXIS":"6925.373","PERIAPSIS":"545.891","ECCENTRICITY":"0.00019440","FILE":"3222418","NORAD_CAT_ID":"47556"},{"PERIOD":"95.593","ELEMENT_SET_NO":"999","EPOCH":"2021-11-23T11:43:04.899360","MEAN_MOTION_DOT":"-0.00001777","TLE_LINE2":"2 47557  53.0554 237.0691 0001987  61.9567 298.1622 15.06391528 44300","MEAN_ELEMENT_THEORY":"SGP4","SITE":"AFETR","COUNTRY_CODE":"US","TIME_SYSTEM":"UTC","GP_ID":"190336701","OBJECT_TYPE":"PAYLOAD","DECAY_DATE":null,"RCS_SIZE":"LARGE","INCLINATION":"53.0554","OBJECT_NAME":"STARLINK-1956","RA_OF_ASC_NODE":"237.0691","MEAN_MOTION":"15.06391528","CLASSIFICATION_TYPE":"U","LAUNCH_DATE":"2021-02-04","ECCENTRICITY":"0.00019870","NORAD_CAT_ID":"47557","FILE":"3222418","SEMIMAJOR_AXIS":"6925.375","PERIAPSIS":"545.863","ARG_OF_PERICENTER":"61.9567","MEAN_ANOMALY":"298.1622","REF_FRAME":"TEME","CENTER_NAME":"EARTH","APOAPSIS":"548.616","BSTAR":"-0.00010046000000","MEAN_MOTION_DDOT":"0.0000000000000","OBJECT_ID":"2021-009K","TLE_LINE1":"1 47557U 21009K   21327.48825115 -.00001777  00000-0 -10046-3 0  9997","EPHEMERIS_TYPE":"0","REV_AT_EPOCH":"4430"},{"ARG_OF_PERICENTER":"82.5154","MEAN_ANOMALY":"277.6071","REF_FRAME":"TEME","CENTER_NAME":"EARTH","APOAPSIS":"548.647","BSTAR":"0.00007109400000","MEAN_MOTION_DDOT":"0.0000000000000","OBJECT_ID":"2021-009L","TLE_LINE1":"1 47558U 21009L   21327.86699091  .00000777  00000-0  71094-4 0  9990","REV_AT_EPOCH":"4477","EPHEMERIS_TYPE":"0","RA_OF_ASC_NODE":"205.3469","OBJECT_NAME":"STARLINK-1957","MEAN_MOTION":"15.06401699","CLASSIFICATION_TYPE":"U","LAUNCH_DATE":"2021-02-04","ECCENTRICITY":"0.00020780","FILE":"3222563","NORAD_CAT_ID":"47558","SEMIMAJOR_AXIS":"6925.343","PERIAPSIS":"545.769","GP_ID":"190363743","OBJECT_TYPE":"PAYLOAD","DECAY_DATE":null,"INCLINATION":"53.0539","RCS_SIZE":"LARGE","PERIOD":"95.592","ELEMENT_SET_NO":"999","EPOCH":"2021-11-23T20:48:28.014624","MEAN_MOTION_DOT":"0.00000777","TLE_LINE2":"2 47558  53.0539 205.3469 0002078  82.5154 277.6071 15.06401699 44770","MEAN_ELEMENT_THEORY":"SGP4","SITE":"AFETR","COUNTRY_CODE":"US","TIME_SYSTEM":"UTC"}];
